{
  "type": "FeatureCollection",
  "features": [
    {
      "type": "Feature",
      "properties": {
        "norad_id": 66877,
        "name": "ZQ-3 R/B",
        "group": "last-30-days",
        "lat": -42.242833381812204,
        "lon": 5.392404433766751,
        "alt_km": 539.6230973587408,
        "timestamp": "2025-12-16T21:38:55.919136+00:00",
        "meta_object_name": "ZQ-3 R/B",
        "meta_object_id": "2025-282A",
        "meta_epoch": "2025-12-16T07:11:08.720736",
        "meta_mean_motion": 14.66866709,
        "meta_eccentricity": 0.07484442,
        "meta_inclination": 56.9512,
        "meta_ra_of_asc_node": 43.972,
        "meta_arg_of_pericenter": 226.1521,
        "meta_mean_anomaly": 127.528,
        "meta_ephemeris_type": 0,
        "meta_classification_type": "U",
        "meta_norad_cat_id": 66877,
        "meta_element_set_no": 999,
        "meta_rev_at_epoch": 191,
        "meta_bstar": 0.0002049951,
        "meta_mean_motion_dot": 0.01073213,
        "meta_mean_motion_ddot": 7.608496e-06,
        "tle_line1": "1 66877U 25282A   25350.29940649  .01073213  76085-5  20500-3 0  9999",
        "tle_line2": "2 66877  56.9512  43.9720 0748444 226.1521 127.5280 14.66866709  1918"
      },
      "geometry": {
        "type": "Point",
        "coordinates": [
          5.392404433766751,
          -42.242833381812204
        ]
      }
    },
    {
      "type": "Feature",
      "properties": {
        "norad_id": 66878,
        "name": "STARLINK-35866",
        "group": "last-30-days",
        "lat": -52.289461963426504,
        "lon": -51.22828996818606,
        "alt_km": 317.6714515815047,
        "timestamp": "2025-12-16T21:38:55.919146+00:00",
        "meta_object_name": "STARLINK-35866",
        "meta_object_id": "2025-283A",
        "meta_epoch": "2025-12-16T06:56:20.585760",
        "meta_mean_motion": 15.85723836,
        "meta_eccentricity": 7.912e-05,
        "meta_inclination": 53.1553,
        "meta_ra_of_asc_node": 55.9741,
        "meta_arg_of_pericenter": 310.0922,
        "meta_mean_anomaly": 50.0033,
        "meta_ephemeris_type": 0,
        "meta_classification_type": "U",
        "meta_norad_cat_id": 66878,
        "meta_element_set_no": 999,
        "meta_rev_at_epoch": 301,
        "meta_bstar": 0.0012182646,
        "meta_mean_motion_dot": 0.00312674,
        "meta_mean_motion_ddot": 0,
        "tle_line1": "1 66878U 25283A   25350.28912715  .00312674  00000+0  12183-2 0  9994",
        "tle_line2": "2 66878  53.1553  55.9741 0000791 310.0922  50.0033 15.85723836  3017"
      },
      "geometry": {
        "type": "Point",
        "coordinates": [
          -51.22828996818606,
          -52.289461963426504
        ]
      }
    },
    {
      "type": "Feature",
      "properties": {
        "norad_id": 66879,
        "name": "STARLINK-35749",
        "group": "last-30-days",
        "lat": -53.06361382709047,
        "lon": -41.26092900342515,
        "alt_km": 321.6102187885308,
        "timestamp": "2025-12-16T21:38:55.919157+00:00",
        "meta_object_name": "STARLINK-35749",
        "meta_object_id": "2025-283B",
        "meta_epoch": "2025-12-16T06:54:27.611712",
        "meta_mean_motion": 15.85840886,
        "meta_eccentricity": 8.617e-05,
        "meta_inclination": 53.1553,
        "meta_ra_of_asc_node": 55.9657,
        "meta_arg_of_pericenter": 333.2835,
        "meta_mean_anomaly": 26.8146,
        "meta_ephemeris_type": 0,
        "meta_classification_type": "U",
        "meta_norad_cat_id": 66879,
        "meta_element_set_no": 999,
        "meta_rev_at_epoch": 301,
        "meta_bstar": -0.0036252252,
        "meta_mean_motion_dot": -0.00825517,
        "meta_mean_motion_ddot": 0,
        "tle_line1": "1 66879U 25283B   25350.28781958 -.00825517  00000+0 -36252-2 0  9998",
        "tle_line2": "2 66879  53.1553  55.9657 0000861 333.2835  26.8146 15.85840886  3013"
      },
      "geometry": {
        "type": "Point",
        "coordinates": [
          -41.26092900342515,
          -53.06361382709047
        ]
      }
    },
    {
      "type": "Feature",
      "properties": {
        "norad_id": 66880,
        "name": "STARLINK-35844",
        "group": "last-30-days",
        "lat": -52.77158672228802,
        "lon": -46.415449115591116,
        "alt_km": 319.9357561456691,
        "timestamp": "2025-12-16T21:38:55.919169+00:00",
        "meta_object_name": "STARLINK-35844",
        "meta_object_id": "2025-283C",
        "meta_epoch": "2025-12-16T06:54:58.450464",
        "meta_mean_motion": 15.86195873,
        "meta_eccentricity": 0.00089822,
        "meta_inclination": 53.1554,
        "meta_ra_of_asc_node": 55.968,
        "meta_arg_of_pericenter": 295.876,
        "meta_mean_anomaly": 64.1339,
        "meta_ephemeris_type": 0,
        "meta_classification_type": "U",
        "meta_norad_cat_id": 66880,
        "meta_element_set_no": 999,
        "meta_rev_at_epoch": 301,
        "meta_bstar": -0.0088806291,
        "meta_mean_motion_dot": -0.01978766,
        "meta_mean_motion_ddot": 0,
        "tle_line1": "1 66880U 25283C   25350.28817651 -.01978766  00000+0 -88806-2 0  9998",
        "tle_line2": "2 66880  53.1554  55.9680 0008982 295.8760  64.1339 15.86195873  3013"
      },
      "geometry": {
        "type": "Point",
        "coordinates": [
          -46.415449115591116,
          -52.77158672228802
        ]
      }
    },
    {
      "type": "Feature",
      "properties": {
        "norad_id": 66881,
        "name": "STARLINK-35860",
        "group": "last-30-days",
        "lat": -53.13460450167842,
        "lon": -37.23291865509177,
        "alt_km": 321.6192012552019,
        "timestamp": "2025-12-16T21:38:55.919181+00:00",
        "meta_object_name": "STARLINK-35860",
        "meta_object_id": "2025-283D",
        "meta_epoch": "2025-12-16T06:53:50.819136",
        "meta_mean_motion": 15.85857166,
        "meta_eccentricity": 0.00010085,
        "meta_inclination": 53.1549,
        "meta_ra_of_asc_node": 55.9623,
        "meta_arg_of_pericenter": 323.7744,
        "meta_mean_anomaly": 36.3213,
        "meta_ephemeris_type": 0,
        "meta_classification_type": "U",
        "meta_norad_cat_id": 66881,
        "meta_element_set_no": 999,
        "meta_rev_at_epoch": 301,
        "meta_bstar": -0.0037314989,
        "meta_mean_motion_dot": -0.00848216,
        "meta_mean_motion_ddot": 0,
        "tle_line1": "1 66881U 25283D   25350.28739374 -.00848216  00000+0 -37315-2 0  9998",
        "tle_line2": "2 66881  53.1549  55.9623 0001008 323.7744  36.3213 15.85857166  3011"
      },
      "geometry": {
        "type": "Point",
        "coordinates": [
          -37.23291865509177,
          -53.13460450167842
        ]
      }
    },
    {
      "type": "Feature",
      "properties": {
        "norad_id": 66882,
        "name": "STARLINK-35912",
        "group": "last-30-days",
        "lat": -53.03647718788839,
        "lon": -32.29779846493763,
        "alt_km": 319.7280196207694,
        "timestamp": "2025-12-16T21:38:55.919193+00:00",
        "meta_object_name": "STARLINK-35912",
        "meta_object_id": "2025-283E",
        "meta_epoch": "2025-12-16T06:53:12.485184",
        "meta_mean_motion": 15.85769344,
        "meta_eccentricity": 0.00019982,
        "meta_inclination": 53.1553,
        "meta_ra_of_asc_node": 55.9606,
        "meta_arg_of_pericenter": 323.9776,
        "meta_mean_anomaly": 36.1114,
        "meta_ephemeris_type": 0,
        "meta_classification_type": "U",
        "meta_norad_cat_id": 66882,
        "meta_element_set_no": 999,
        "meta_rev_at_epoch": 301,
        "meta_bstar": -0.00177632,
        "meta_mean_motion_dot": -0.00422323,
        "meta_mean_motion_ddot": 0,
        "tle_line1": "1 66882U 25283E   25350.28695006 -.00422323  00000+0 -17763-2 0  9994",
        "tle_line2": "2 66882  53.1553  55.9606 0001998 323.9776  36.1114 15.85769344  3011"
      },
      "geometry": {
        "type": "Point",
        "coordinates": [
          -32.29779846493763,
          -53.03647718788839
        ]
      }
    },
    {
      "type": "Feature",
      "properties": {
        "norad_id": 66883,
        "name": "STARLINK-35947",
        "group": "last-30-days",
        "lat": -52.97875947025916,
        "lon": -31.046382570282237,
        "alt_km": 318.7932140246194,
        "timestamp": "2025-12-16T21:38:55.919203+00:00",
        "meta_object_name": "STARLINK-35947",
        "meta_object_id": "2025-283F",
        "meta_epoch": "2025-12-16T06:52:34.257504",
        "meta_mean_motion": 15.86495118,
        "meta_eccentricity": 0.00143553,
        "meta_inclination": 53.1553,
        "meta_ra_of_asc_node": 55.9566,
        "meta_arg_of_pericenter": 313.3277,
        "meta_mean_anomaly": 46.6551,
        "meta_ephemeris_type": 0,
        "meta_classification_type": "U",
        "meta_norad_cat_id": 66883,
        "meta_element_set_no": 999,
        "meta_rev_at_epoch": 303,
        "meta_bstar": -0.011206909,
        "meta_mean_motion_dot": -0.02460974,
        "meta_mean_motion_ddot": 0,
        "tle_line1": "1 66883U 25283F   25350.28650761 -.02460974  00000+0 -11207-1 0  9996",
        "tle_line2": "2 66883  53.1553  55.9566 0014355 313.3277  46.6551 15.86495118  3036"
      },
      "geometry": {
        "type": "Point",
        "coordinates": [
          -31.046382570282237,
          -52.97875947025916
        ]
      }
    }
  ]
}